[{"OBJECT_NAME":"CUTE-1 (CO-55)","OBJECT_ID":"2003-031E","EPOCH":"2026-03-15T06:05:59.957952","MEAN_MOTION":14.24271187,"ECCENTRICITY":0.00107666,"INCLINATION":98.6777,"RA_OF_ASC_NODE":83.9839,"ARG_OF_PERICENTER":98.1301,"MEAN_ANOMALY":262.1099,"EPHEMERIS_TYPE":0,"CLASSIFICATION_TYPE":"U","NORAD_CAT_ID":27844,"ELEMENT_SET_NO":999,"REV_AT_EPOCH":17830,"BSTAR":0.00017886427,"MEAN_MOTION_DOT":3.69e-6,"MEAN_MOTION_DDOT":0},{"OBJECT_NAME":"CUBESAT XI-IV (CO-57)","OBJECT_ID":"2003-031J","EPOCH":"2026-03-14T13:31:00.670944","MEAN_MOTION":14.2356524,"ECCENTRICITY":0.00105214,"INCLINATION":98.6807,"RA_OF_ASC_NODE":83.0901,"ARG_OF_PERICENTER":116.0304,"MEAN_ANOMALY":244.1959,"EPHEMERIS_TYPE":0,"CLASSIFICATION_TYPE":"U","NORAD_CAT_ID":27848,"ELEMENT_SET_NO":999,"REV_AT_EPOCH":17791,"BSTAR":0.00017224166,"MEAN_MOTION_DOT":3.49e-6,"MEAN_MOTION_DDOT":0},{"OBJECT_NAME":"CUBESAT XI-V","OBJECT_ID":"2005-043F","EPOCH":"2026-03-14T22:46:15.925152","MEAN_MOTION":14.72345947,"ECCENTRICITY":0.00149979,"INCLINATION":98.2839,"RA_OF_ASC_NODE":227.6725,"ARG_OF_PERICENTER":141.648,"MEAN_ANOMALY":218.5796,"EPHEMERIS_TYPE":0,"CLASSIFICATION_TYPE":"U","NORAD_CAT_ID":28895,"ELEMENT_SET_NO":999,"REV_AT_EPOCH":8788,"BSTAR":0.00036984408,"MEAN_MOTION_DOT":2.291e-5,"MEAN_MOTION_DDOT":0},{"OBJECT_NAME":"CUTE-1.7+APD II (CO-65)","OBJECT_ID":"2008-021C","EPOCH":"2026-03-15T05:15:59.698944","MEAN_MOTION":15.08460261,"ECCENTRICITY":0.00089849,"INCLINATION":97.8207,"RA_OF_ASC_NODE":53.7902,"ARG_OF_PERICENTER":0.4138,"MEAN_ANOMALY":359.7095,"EPHEMERIS_TYPE":0,"CLASSIFICATION_TYPE":"U","NORAD_CAT_ID":32785,"ELEMENT_SET_NO":999,"REV_AT_EPOCH":97102,"BSTAR":0.00051149152,"MEAN_MOTION_DOT":7.912e-5,"MEAN_MOTION_DDOT":0},{"OBJECT_NAME":"CANX-2","OBJECT_ID":"2008-021H","EPOCH":"2026-03-15T03:49:53.385888","MEAN_MOTION":15.04858835,"ECCENTRICITY":0.00107554,"INCLINATION":97.8552,"RA_OF_ASC_NODE":52.2037,"ARG_OF_PERICENTER":10.2047,"MEAN_ANOMALY":349.9395,"EPHEMERIS_TYPE":0,"CLASSIFICATION_TYPE":"U","NORAD_CAT_ID":32790,"ELEMENT_SET_NO":999,"REV_AT_EPOCH":97066,"BSTAR":0.00045883384,"MEAN_MOTION_DOT":6.432e-5,"MEAN_MOTION_DDOT":0},{"OBJECT_NAME":"SEEDS II (CO-66)","OBJECT_ID":"2008-021J","EPOCH":"2026-03-14T23:01:46.562880","MEAN_MOTION":15.29337445,"ECCENTRICITY":6.41e-5,"INCLINATION":97.7514,"RA_OF_ASC_NODE":67.6101,"ARG_OF_PERICENTER":328.694,"MEAN_ANOMALY":31.4261,"EPHEMERIS_TYPE":0,"CLASSIFICATION_TYPE":"U","NORAD_CAT_ID":32791,"ELEMENT_SET_NO":999,"REV_AT_EPOCH":97287,"BSTAR":0.00086115435,"MEAN_MOTION_DOT":0.00024478,"MEAN_MOTION_DDOT":0},{"OBJECT_NAME":"SWISSCUBE","OBJECT_ID":"2009-051B","EPOCH":"2026-03-14T22:50:27.128832","MEAN_MOTION":14.62275636,"ECCENTRICITY":0.00074228,"INCLINATION":98.4097,"RA_OF_ASC_NODE":340.1877,"ARG_OF_PERICENTER":137.4075,"MEAN_ANOMALY":222.7702,"EPHEMERIS_TYPE":0,"CLASSIFICATION_TYPE":"U","NORAD_CAT_ID":35932,"ELEMENT_SET_NO":999,"REV_AT_EPOCH":87538,"BSTAR":0.00028020867,"MEAN_MOTION_DOT":1.364e-5,"MEAN_MOTION_DDOT":0},{"OBJECT_NAME":"BEESAT-1","OBJECT_ID":"2009-051C","EPOCH":"2026-03-15T04:29:08.420928","MEAN_MOTION":14.61546841,"ECCENTRICITY":0.000568,"INCLINATION":98.4025,"RA_OF_ASC_NODE":340.2563,"ARG_OF_PERICENTER":147.2,"MEAN_ANOMALY":212.9554,"EPHEMERIS_TYPE":0,"CLASSIFICATION_TYPE":"U","NORAD_CAT_ID":35933,"ELEMENT_SET_NO":999,"REV_AT_EPOCH":87545,"BSTAR":0.00021833564,"MEAN_MOTION_DOT":1.035e-5,"MEAN_MOTION_DDOT":0},{"OBJECT_NAME":"ITUPSAT1","OBJECT_ID":"2009-051E","EPOCH":"2026-03-15T05:35:25.875168","MEAN_MOTION":14.60280671,"ECCENTRICITY":0.00076472,"INCLINATION":98.4111,"RA_OF_ASC_NODE":339.5922,"ARG_OF_PERICENTER":160.9379,"MEAN_ANOMALY":199.2108,"EPHEMERIS_TYPE":0,"CLASSIFICATION_TYPE":"U","NORAD_CAT_ID":35935,"ELEMENT_SET_NO":999,"REV_AT_EPOCH":87502,"BSTAR":0.00020461655,"MEAN_MOTION_DOT":9.39e-6,"MEAN_MOTION_DDOT":0},{"OBJECT_NAME":"TISAT 1","OBJECT_ID":"2010-035E","EPOCH":"2026-03-14T19:12:24.385536","MEAN_MOTION":15.27894692,"ECCENTRICITY":0.00020217,"INCLINATION":98.0644,"RA_OF_ASC_NODE":12.3029,"ARG_OF_PERICENTER":152.2134,"MEAN_ANOMALY":207.9212,"EPHEMERIS_TYPE":0,"CLASSIFICATION_TYPE":"U","NORAD_CAT_ID":36799,"ELEMENT_SET_NO":999,"REV_AT_EPOCH":85327,"BSTAR":0.0011309396,"MEAN_MOTION_DOT":0.0003081,"MEAN_MOTION_DDOT":0},{"OBJECT_NAME":"AEROCUBE 4.5A","OBJECT_ID":"2012-048K","EPOCH":"2026-03-15T03:55:34.749696","MEAN_MOTION":15.63218123,"ECCENTRICITY":0.00399195,"INCLINATION":64.6386,"RA_OF_ASC_NODE":0.9891,"ARG_OF_PERICENTER":210.2375,"MEAN_ANOMALY":149.6469,"EPHEMERIS_TYPE":0,"CLASSIFICATION_TYPE":"U","NORAD_CAT_ID":38767,"ELEMENT_SET_NO":999,"REV_AT_EPOCH":35784,"BSTAR":0.0010912319,"MEAN_MOTION_DOT":0.00105754,"MEAN_MOTION_DDOT":0},{"OBJECT_NAME":"STRAND-1","OBJECT_ID":"2013-009E","EPOCH":"2026-03-15T01:33:13.461696","MEAN_MOTION":14.37100135,"ECCENTRICITY":0.00093066,"INCLINATION":98.3893,"RA_OF_ASC_NODE":256.6229,"ARG_OF_PERICENTER":146.5378,"MEAN_ANOMALY":213.6399,"EPHEMERIS_TYPE":0,"CLASSIFICATION_TYPE":"U","NORAD_CAT_ID":39090,"ELEMENT_SET_NO":999,"REV_AT_EPOCH":68354,"BSTAR":0.00015301379,"MEAN_MOTION_DOT":4.12e-6,"MEAN_MOTION_DDOT":0},{"OBJECT_NAME":"BRITE-AUSTRIA","OBJECT_ID":"2013-009F","EPOCH":"2026-03-15T05:55:02.118720","MEAN_MOTION":14.36499751,"ECCENTRICITY":0.00106971,"INCLINATION":98.3961,"RA_OF_ASC_NODE":256.0151,"ARG_OF_PERICENTER":155.0328,"MEAN_ANOMALY":205.1378,"EPHEMERIS_TYPE":0,"CLASSIFICATION_TYPE":"U","NORAD_CAT_ID":39091,"ELEMENT_SET_NO":999,"REV_AT_EPOCH":68356,"BSTAR":9.7052211e-5,"MEAN_MOTION_DOT":2.42e-6,"MEAN_MOTION_DDOT":0},{"OBJECT_NAME":"NEE-01 PEGASO","OBJECT_ID":"2013-018B","EPOCH":"2026-03-14T22:15:24.633216","MEAN_MOTION":14.93137831,"ECCENTRICITY":0.00138861,"INCLINATION":98.1052,"RA_OF_ASC_NODE":215.0766,"ARG_OF_PERICENTER":113.9336,"MEAN_ANOMALY":246.3338,"EPHEMERIS_TYPE":0,"CLASSIFICATION_TYPE":"U","NORAD_CAT_ID":39151,"ELEMENT_SET_NO":999,"REV_AT_EPOCH":69663,"BSTAR":0.00044608883,"MEAN_MOTION_DOT":4.601e-5,"MEAN_MOTION_DDOT":0},{"OBJECT_NAME":"POPACS 2","OBJECT_ID":"2013-055E","EPOCH":"2026-03-14T22:57:35.502624","MEAN_MOTION":14.88146585,"ECCENTRICITY":0.04296754,"INCLINATION":80.9891,"RA_OF_ASC_NODE":251.8337,"ARG_OF_PERICENTER":136.0284,"MEAN_ANOMALY":227.5979,"EPHEMERIS_TYPE":0,"CLASSIFICATION_TYPE":"U","NORAD_CAT_ID":39269,"ELEMENT_SET_NO":999,"REV_AT_EPOCH":64918,"BSTAR":0.00057296099,"MEAN_MOTION_DOT":0.0003316,"MEAN_MOTION_DDOT":0},{"OBJECT_NAME":"POPACS 3","OBJECT_ID":"2013-055F","EPOCH":"2026-03-14T23:28:54.874560","MEAN_MOTION":14.54140165,"ECCENTRICITY":0.05592542,"INCLINATION":81.0049,"RA_OF_ASC_NODE":331.2026,"ARG_OF_PERICENTER":356.6622,"MEAN_ANOMALY":3.0892,"EPHEMERIS_TYPE":0,"CLASSIFICATION_TYPE":"U","NORAD_CAT_ID":39270,"ELEMENT_SET_NO":999,"REV_AT_EPOCH":62485,"BSTAR":0.00037816769,"MEAN_MOTION_DOT":0.00015661,"MEAN_MOTION_DDOT":0}]
