CUTE-1 (CO-55)          
1 27844U 03031E   26074.25416618  .00000369  00000+0  17886-3 0  9994
2 27844  98.6777  83.9839 0010766  98.1301 262.1099 14.24271187178308
CUBESAT XI-IV (CO-57)   
1 27848U 03031J   26073.56320221  .00000349  00000+0  17224-3 0  9999
2 27848  98.6807  83.0901 0010521 116.0304 244.1959 14.23565240177915
CUBESAT XI-V            
1 28895U 05043F   26073.94879543  .00002291  00000+0  36984-3 0  9997
2 28895  98.2839 227.6725 0014997 141.6480 218.5796 14.72345947 87883
CUTE-1.7+APD II (CO-65) 
1 32785U 08021C   26074.21944096  .00007912  00000+0  51149-3 0  9991
2 32785  97.8207  53.7902 0008984   0.4138 359.7095 15.08460261971021
CANX-2                  
1 32790U 08021H   26074.15964567  .00006432  00000+0  45883-3 0  9999
2 32790  97.8552  52.2037 0010755  10.2047 349.9395 15.04858835970667
SEEDS II (CO-66)        
1 32791U 08021J   26073.95956670  .00024478  00000+0  86115-3 0  9996
2 32791  97.7514  67.6101 0000641 328.6940  31.4261 15.29337445972874
SWISSCUBE               
1 35932U 09051B   26073.95170288  .00001364  00000+0  28021-3 0  9994
2 35932  98.4097 340.1877 0007422 137.4075 222.7702 14.62275636875388
BEESAT-1                
1 35933U 09051C   26074.18690302  .00001035  00000+0  21834-3 0  9995
2 35933  98.4025 340.2563 0005680 147.2000 212.9554 14.61546841875456
ITUPSAT1                
1 35935U 09051E   26074.23293837  .00000939  00000+0  20462-3 0  9993
2 35935  98.4111 339.5922 0007647 160.9379 199.2108 14.60280671875020
TISAT 1                 
1 36799U 10035E   26073.80028224  .00030810  00000+0  11309-2 0  9994
2 36799  98.0644  12.3029 0002021 152.2134 207.9212 15.27894692853278
AEROCUBE 4.5A           
1 38767U 12048K   26074.16359664  .00105754  00000+0  10912-2 0  9991
2 38767  64.6386   0.9891 0039919 210.2375 149.6469 15.63218123357842
STRAND-1                
1 39090U 13009E   26074.06473914  .00000412  00000+0  15301-3 0  9996
2 39090  98.3893 256.6229 0009306 146.5378 213.6399 14.37100135683541
BRITE-AUSTRIA           
1 39091U 13009F   26074.24655230  .00000242  00000+0  97052-4 0  9995
2 39091  98.3961 256.0151 0010697 155.0328 205.1378 14.36499751683560
NEE-01 PEGASO           
1 39151U 13018B   26073.92736844  .00004601  00000+0  44609-3 0  9999
2 39151  98.1052 215.0766 0013886 113.9336 246.3338 14.93137831696634
POPACS 2                
1 39269U 13055E   26073.95666091  .00033160  00000+0  57296-3 0  9997
2 39269  80.9891 251.8337 0429675 136.0284 227.5979 14.88146585649181
POPACS 3                
1 39270U 13055F   26073.97841290  .00015661  00000+0  37817-3 0  9990
2 39270  81.0049 331.2026 0559254 356.6622   3.0892 14.54140165624850
